KAITUO 1B               
1 40912U 15049P   17342.97226569  .00001480  00000-0  75385-4 0  9993
2 40912  97.4503 348.0630 0014499 319.6697  94.5907 15.18266845122801
TIANWANG 1C (TW-1C)     
1 40926U 15051B   17343.15292775  .00009737  00000-0  20074-3 0  9991
2 40926  97.2087  21.5131 0008861 249.4576 145.3334 15.46057480123929
TIANWANG 1B (TW-1B)     
1 40927U 15051C   17343.15915931  .00009739  00000-0  20887-3 0  9992
2 40927  97.2178  21.4547 0008571 263.5456 145.3965 15.44898518123858
TIANWANG 1A (TW-1A)     
1 40928U 15051D   17343.10758688  .00003313  00000-0  91940-4 0  9993
2 40928  97.2078  15.7479 0010351 292.0194 129.6903 15.37561176123567
LAPAN-A2 (IO-86)        
1 40931U 15052B   17343.12166422  .00000606  00000-0 -46528-5 0  9995
2 40931   6.0025  65.3650 0012415 200.7345 159.2446 14.76557030118864
LQSAT                   
1 40958U 15057A   17343.10074423  .00000044  00000-0  14671-4 0  9994
2 40958  97.9628  55.2161 0017093 222.8652 137.1233 14.73005490116861
CHUBUSAT-2              
1 41338U 16012B   17342.58871184  .00000378  00000-0  22901-4 0  9994
2 41338  31.0038  84.5138 0013986 345.6510  14.3727 14.99884027 99190
CHUBUSAT-3              
1 41339U 16012C   17342.69324176  .00000391  00000-0  23838-4 0  9996
2 41339  31.0090  82.7227 0013835 353.7753   6.2715 15.00078570 99198
OUFTI-1                 
1 41458U 16025C   17343.13852651  .00002312  00000-0  12437-3 0  9993
2 41458  98.1647  30.6386 0173015  64.9818 296.9275 15.04033932 88868
E-ST@R-II               
1 41459U 16025D   17343.11451094  .00001722  00000-0  93839-4 0  9998
2 41459  98.1645  30.5212 0174615  65.4039 296.5277 15.03811200 88850
AAUSAT 4                
1 41460U 16025E   17343.05946291  .00002758  00000-0  14700-3 0  9990
2 41460  98.1586  30.7047 0166068  63.0426 298.7660 15.05007638 88888
NUSAT 1 (LO-87)         
1 41557U 16033B   17343.19755832  .00001633  00000-0  62749-4 0  9998
2 41557  97.4517  62.6731 0015549 107.8165 252.4772 15.27800068 85148
BEESAT-4                
1 41619U 16040W   17343.17637151  .00001724  00000-0  79540-4 0  9994
2 41619  97.4419  43.7443 0012123 168.8361 191.3146 15.21539304 69197
PRATHAM                 
1 41783U 16059A   17342.78604361  .00000072  00000-0  23521-4 0  9992
2 41783  98.1457  42.1486 0032967 335.2830  24.6791 14.62885667 64120
ALSAT 1N                
1 41789U 16059G   17343.10798914  .00000132  00000-0  34327-4 0  9996
2 41789  98.1464  43.3092 0027552 328.0483  31.9057 14.64108678 64205
NAYIF-1 (EO-88)         
1 42017U 17008BX  17342.89873961  .00001738  00000-0  75121-4 0  9997
2 42017  97.4742  43.8914 0005769 342.6380  17.4658 15.23813891 45080
LILACSAT-1              
1 42725U 98067ME  17343.16237359  .00015808  00000-0  18659-3 0  9998
2 42725  51.6376 241.2067 0004574 222.6115 137.4525 15.61509395 30757
MAX VALIER SAT          
1 42778U 17036P   17342.73576296  .00001111  00000-0  53294-4 0  9998
2 42778  97.4308  40.3679 0013221  23.8693 336.3152 15.20889182 25554
FOX-1B (AO-91)          
1 43017U 17073E   17342.83142257  .00000459  00000-0  41553-4 0  9992
2 43017  97.6930 277.0930 0260908 170.9180 189.6889 14.77791033  2991
